{
  "55669": {
    "noradId": "55669",
    "tle": [
      "1 55669C 23021AT  26123.37965278 -.00232210  00000+0 -19450-1 0  1230",
      "2 55669  70.0025  26.5732 0003015 272.0194 184.6511 14.98467440    10"
    ]
  },
  "55670": {
    "noradId": "55670",
    "tle": [
      "1 55670C 23021AU  26123.42826389 -.00028571  00000+0 -23945-2 0  1235",
      "2 55670  70.0020  26.3765 0002973 271.0411 155.2479 14.98343826    12"
    ]
  },
  "55671": {
    "noradId": "55671",
    "tle": [
      "1 55671C 23021AV  26123.38520833 -.00046444  00000+0 -38927-2 0  1231",
      "2 55671  70.0018  26.7514 0002989 271.4997  34.1183 14.98349131    18"
    ]
  },
  "55673": {
    "noradId": "55673",
    "tle": [
      "1 55673C 23021AX  26123.43104167 -.00026974  00000+0 -22609-2 0  1233",
      "2 55673  70.0018  26.3446 0002990 269.9293 193.8487 14.98337564    10"
    ]
  },
  "55674": {
    "noradId": "55674",
    "tle": [
      "1 55674C 23021AY  26123.39354167 -.00043496  00000+0 -36453-2 0  1236",
      "2 55674  70.0019  26.3871 0002850 272.3985  34.1716 14.98351374    12"
    ]
  },
  "55675": {
    "noradId": "55675",
    "tle": [
      "1 55675C 23021AZ  26123.40048611 -.00042172  00000+0 -35346-2 0  1233",
      "2 55675  70.0018  26.3218 0002910 270.8892 118.1447 14.98347594    17"
    ]
  },
  "55676": {
    "noradId": "55676",
    "tle": [
      "1 55676C 23021BA  26123.41368056  .00000928  00000+0  77752-4 0  1233",
      "2 55676  70.0017   6.5155 0002772 269.2857 101.1909 14.98323788    10"
    ]
  },
  "55677": {
    "noradId": "55677",
    "tle": [
      "1 55677C 23021BB  26123.39562500 -.00014044  00000+0 -11773-2 0  1236",
      "2 55677  70.0019   6.4812 0002754 269.1514  72.3875 14.98326582    17"
    ]
  },
  "55741": {
    "noradId": "55741",
    "tle": [
      "1 55741C 23028A   26123.41854167  .00019898  00000+0  16676-2 0  1238",
      "2 55741  70.0000 106.5812 0003040 273.5836 140.2299 14.98319253    18"
    ]
  },
  "55742": {
    "noradId": "55742",
    "tle": [
      "1 55742C 23028B   26123.40604167  .00024751  00000+0  20741-2 0  1233",
      "2 55742  70.0000 106.6383 0003596 269.8493  54.0369 14.98319582    11"
    ]
  },
  "55743": {
    "noradId": "55743",
    "tle": [
      "1 55743C 23028C   26123.43243056  .00023096  00000+0  19353-2 0  1231",
      "2 55743  70.0001 106.5984 0003457 272.5001 171.1759 14.98321947    13"
    ]
  },
  "55744": {
    "noradId": "55744",
    "tle": [
      "1 55744C 23028D   26123.41923611  .00024197  00000+0  20277-2 0  1232",
      "2 55744  70.0002 106.6059 0003649 270.9887 123.1588 14.98319122    15"
    ]
  },
  "55746": {
    "noradId": "55746",
    "tle": [
      "1 55746C 23028F   26123.42479167  .00025426  00000+0  21307-2 0  1238",
      "2 55746  70.0000 106.4157 0003134 273.6858 308.8844 14.98318867    11"
    ]
  },
  "55747": {
    "noradId": "55747",
    "tle": [
      "1 55747C 23028G   26123.38798611  .00031483  00000+0  26384-2 0  1232",
      "2 55747  70.0000 106.6083 0003315 273.5385  20.5195 14.98314175    12"
    ]
  },
  "55748": {
    "noradId": "55748",
    "tle": [
      "1 55748C 23028H   26123.39909722  .00032186  00000+0  26973-2 0  1236",
      "2 55748  70.0001 106.5553 0003624 271.4651 105.0213 14.98312458    13"
    ]
  },
  "55750": {
    "noradId": "55750",
    "tle": [
      "1 55750C 23028K   26123.40465278  .00033975  00000+0  28474-2 0  1239",
      "2 55750  70.0000 106.5161 0003122 275.4537 153.4898 14.98311732    10"
    ]
  },
  "55751": {
    "noradId": "55751",
    "tle": [
      "1 55751C 23028L   26123.37479167  .00032818  00000+0  27504-2 0  1236",
      "2 55751  70.0001 106.6666 0003243 274.4159 285.9883 14.98312091    10"
    ]
  },
  "55752": {
    "noradId": "55752",
    "tle": [
      "1 55752C 23028M   26123.42548611  .00019639  00000+0  16457-2 0  1235",
      "2 55752  70.0002 106.3133 0003328 272.9407  43.4020 14.98322381    14"
    ]
  },
  "55753": {
    "noradId": "55753",
    "tle": [
      "1 55753C 23028N   26123.41923611  .00030024  00000+0  25161-2 0  1235",
      "2 55753  70.0002 106.4320 0003133 274.4886 277.2342 14.98316276    16"
    ]
  },
  "55754": {
    "noradId": "55754",
    "tle": [
      "1 55754C 23028P   26123.42687500  .00023805  00000+0  19947-2 0  1235",
      "2 55754  70.0003 106.3605 0003153 274.2183   4.5999 14.98322034    11"
    ]
  },
  "55756": {
    "noradId": "55756",
    "tle": [
      "1 55756C 23028R   26123.41368056  .00029058  00000+0  24350-2 0  1238",
      "2 55756  70.0001 106.2918 0003288 272.3189  25.3790 14.98317943    14"
    ]
  },
  "55757": {
    "noradId": "55757",
    "tle": [
      "1 55757C 23028S   26123.38034722  .00038069  00000+0  31904-2 0  1230",
      "2 55757  70.0004 106.5029 0003205 274.1251  91.2877 14.98310508    11"
    ]
  },
  "55758": {
    "noradId": "55758",
    "tle": [
      "1 55758C 23028T   26123.37618056  .00039810  00000+0  33376-2 0  1238",
      "2 55758  70.0004 106.4626 0003409 270.1653 117.8976 14.98293753    19"
    ]
  },
  "55760": {
    "noradId": "55760",
    "tle": [
      "1 55760C 23028V   26123.37201389  .00041546  00000+0  34811-2 0  1232",
      "2 55760  70.0002 106.3724 0003439 272.3805 183.0695 14.98316192    10"
    ]
  },
  "55761": {
    "noradId": "55761",
    "tle": [
      "1 55761C 23028W   26123.35534722  .00036207  00000+0  30347-2 0  1239",
      "2 55761  70.0011  86.8116 0003395 276.7041 201.6711 14.98307022    17"
    ]
  },
  "55762": {
    "noradId": "55762",
    "tle": [
      "1 55762C 23028X   26123.42270833 -.00006356  00000+0 -53262-3 0  1234",
      "2 55762  70.0011  86.5642 0003597 268.1786 281.8401 14.98335053    15"
    ]
  },
  "55763": {
    "noradId": "55763",
    "tle": [
      "1 55763C 23028Y   26123.35326389  .00036429  00000+0  30529-2 0  1237",
      "2 55763  70.0004 106.4705 0003624 267.2138  42.1177 14.98310276    10"
    ]
  },
  "55764": {
    "noradId": "55764",
    "tle": [
      "1 55764C 23028Z   26123.38312500  .00015444  00000+0  12942-2 0  1234",
      "2 55764  70.0010  86.6889 0003400 273.0981  40.9659 14.98323143    11"
    ]
  },
  "55765": {
    "noradId": "55765",
    "tle": [
      "1 55765C 23028AA  26123.40881944  .00000391  00000+0  32783-4 0  1233",
      "2 55765  70.0009  86.6492 0003166 275.2014 154.8491 14.98340035    18"
    ]
  },
  "55766": {
    "noradId": "55766",
    "tle": [
      "1 55766C 23028AB  26123.36715278  .00025044  00000+0  20986-2 0  1237",
      "2 55766  70.0012  86.6027 0003364 271.9678  68.5070 14.98320180    19"
    ]
  },
  "55767": {
    "noradId": "55767",
    "tle": [
      "1 55767C 23028AC  26123.36576389  .00032083  00000+0  26879-2 0  1234",
      "2 55767  70.0011  86.7837 0003489 269.1925 266.1631 14.98324174    17"
    ]
  },
  "55769": {
    "noradId": "55769",
    "tle": [
      "1 55769C 23028AE  26123.43173611 -.00017420  00000+0 -14599-2 0  1231",
      "2 55769  70.0011  86.4903 0003205 272.5708  11.1441 14.98339184    17"
    ]
  },
  "55770": {
    "noradId": "55770",
    "tle": [
      "1 55770C 23028AF  26123.40326389  .00010284  00000+0  86174-3 0  1230",
      "2 55770  70.0009  86.5359 0003139 273.5781 239.1069 14.98330356    10"
    ]
  },
  "55771": {
    "noradId": "55771",
    "tle": [
      "1 55771C 23028AG  26123.42270833 -.00012669  00000+0 -10617-2 0  1234",
      "2 55771  70.0012  86.4380 0003134 272.4001  30.1582 14.98338552    11"
    ]
  },
  "55772": {
    "noradId": "55772",
    "tle": [
      "1 55772C 23028AH  26123.41854167 -.00012475  00000+0 -10454-2 0  1236",
      "2 55772  70.0011  86.3494 0003343 273.3832  95.8557 14.98337368    14"
    ]
  },
  "55773": {
    "noradId": "55773",
    "tle": [
      "1 55773C 23028AJ  26123.36229167  .00032622  00000+0  27337-2 0  1239",
      "2 55773  70.0014  86.6890 0003318 273.4805 333.2586 14.98315534    16"
    ]
  },
  "55774": {
    "noradId": "55774",
    "tle": [
      "1 55774C 23028AK  26123.36368056  .00004942  00000+0  41409-3 0  1232",
      "2 55774  70.0010  86.5601 0003259 272.3645  94.3907 14.98334235    17"
    ]
  },
  "55775": {
    "noradId": "55775",
    "tle": [
      "1 55775C 23028AL  26123.42687500 -.00015951  00000+0 -13367-2 0  1233",
      "2 55775  70.0011  86.3769 0003269 271.9298  98.1138 14.98340118    17"
    ]
  },
  "55777": {
    "noradId": "55777",
    "tle": [
      "1 55777C 23028AN  26123.38034722  .00022927  00000+0  19213-2 0  1237",
      "2 55777  70.0013  86.4444 0003385 272.5956 251.5797 14.98319667    10"
    ]
  },
  "55778": {
    "noradId": "55778",
    "tle": [
      "1 55778C 23028AP  26123.37479167  .00023806  00000+0  19950-2 0  1238",
      "2 55778  70.0013  86.4335 0003492 267.0295 249.7018 14.98318474    14"
    ]
  },
  "55779": {
    "noradId": "55779",
    "tle": [
      "1 55779C 23028AQ  26123.40812500 -.00030735  00000+0 -25756-2 0  1237",
      "2 55779  70.0018  66.2894 0003171 268.8464 226.3880 14.98346993    12"
    ]
  },
  "55780": {
    "noradId": "55780",
    "tle": [
      "1 55780C 23028AR  26123.40534722 -.00002799  00000+0 -23452-3 0  1237",
      "2 55780  70.0011  86.3306 0003092 274.9013  69.1024 14.98335634    11"
    ]
  },
  "55781": {
    "noradId": "55781",
    "tle": [
      "1 55781C 23028AS  26123.36437500  .00027456  00000+0  23022-2 0  1236",
      "2 55781  70.0013  86.5429 0003182 273.5407 142.0955 14.98294670    12"
    ]
  },
  "55782": {
    "noradId": "55782",
    "tle": [
      "1 55782C 23028AT  26123.42618056 -.00042025  00000+0 -35217-2 0  1231",
      "2 55782  70.0020  66.6278 0003255 271.7463 342.3149 14.98353108    17"
    ]
  },
  "55783": {
    "noradId": "55783",
    "tle": [
      "1 55783C 23028AU  26123.36090278 -.00005135  00000+0 -43030-3 0  1239",
      "2 55783  70.0019  66.7898 0003071 273.3637 349.5917 14.98334515    15"
    ]
  }
}